{
  "norad_id": 52626,
  "name": "STARLINK-3990",
  "history": [
    {
      "epoch": "2026-05-03T10:50:52.190880Z",
      "apogee_km": 540.743763751716,
      "perigee_km": 538.8237640229072,
      "latitude_deg": -4.537126193829231e-06,
      "longitude_deg": -0.7896459328174248,
      "height_km": 540.7131513567259,
      "semi_major_axis_km": 6917.920763887311,
      "eccentricity": 0.00013877,
      "inclination_deg": 53.2175,
      "raan_deg": 23.2833,
      "arg_perigee_deg": 92.0125,
      "mean_anomaly_deg": 268.1026,
      "mean_motion_rev_day": 15.08826791
    },
    {
      "epoch": "2026-05-04T17:03:11.723904Z",
      "apogee_km": 540.7090587000239,
      "perigee_km": 538.8232383017421,
      "latitude_deg": 6.202688361580358e-05,
      "longitude_deg": -100.76188098829518,
      "height_km": 540.6954030685984,
      "semi_major_axis_km": 6917.903148500883,
      "eccentricity": 0.0001363,
      "inclination_deg": 53.2177,
      "raan_deg": 17.6329,
      "arg_perigee_deg": 92.038,
      "mean_anomaly_deg": 268.0769,
      "mean_motion_rev_day": 15.08832554
    },
    {
      "epoch": "2026-05-05T16:53:57.969888Z",
      "apogee_km": 540.6820877374057,
      "perigee_km": 538.76169010984,
      "latitude_deg": -7.1891915789934945e-06,
      "longitude_deg": -103.89495559118754,
      "height_km": 540.7758673314255,
      "semi_major_axis_km": 6917.8588889236225,
      "eccentricity": 0.0001388,
      "inclination_deg": 53.2197,
      "raan_deg": 13.1719,
      "arg_perigee_deg": 99.4734,
      "mean_anomaly_deg": 260.6415,
      "mean_motion_rev_day": 15.08847034
    },
    {
      "epoch": "2026-05-06T19:55:32.482848Z",
      "apogee_km": 540.7773590762017,
      "perigee_km": 538.7836152564005,
      "latitude_deg": -8.081601055804257e-06,
      "longitude_deg": -155.4524933581848,
      "height_km": 540.8723555787493,
      "semi_major_axis_km": 6917.917487166301,
      "eccentricity": 0.0001441,
      "inclination_deg": 53.2191,
      "raan_deg": 8.1181,
      "arg_perigee_deg": 101.3427,
      "mean_anomaly_deg": 258.7727,
      "mean_motion_rev_day": 15.08827863
    }
  ]
}